norad_id,name,regime,epoch,line1,line2,inclination,eccentricity,mean_motion,raan,arg_pericenter,mean_anomaly
20083,RADUGA 1-1,EGO,21268.64065692,1 20083U 89048A   21268.64065692 -.00000266  00000-0  00000-0 0    18\,2 20083  14.4914 347.8383 0022537 104.9462 289.6197  0.98710932114242,14.4914,0.0022537,0.98710932,347.8383,104.9462,289.6197
20083,RADUGA 1-1,EGO,21269.57630660,1 20083U 89048A   21269.57630660 -.00000257  00000-0  00000-0 0    14\,2 20083  14.4905 347.8306 0022538 105.0079 262.0599  0.98710659114252,14.4905,0.0022538,0.98710659,347.8306,105.0079,262.0599
20083,RADUGA 1-1,EGO,21270.58004264,1 20083U 89048A   21270.58004264 -.00000242  00000-0  00000-0 0    16\,2 20083  14.4896 347.8223 0022535 105.0791 258.6858  0.98710301114261,14.4896,0.0022535,0.98710301,347.8223,105.0791,258.6858
20083,RADUGA 1-1,EGO,21271.58380729,1 20083U 89048A   21271.58380729 -.00000222  00000-0  00000-0 0    18\,2 20083  14.4887 347.8140 0022526 105.1490 255.3215  0.98709880114267,14.4887,0.0022526,0.9870988,347.814,105.149,255.3215
20083,RADUGA 1-1,EGO,21272.58754844,1 20083U 89048A   21272.58754844 -.00000198  00000-0  00000-0 0    14\,2 20083  14.4878 347.8057 0022517 105.2222 251.9443  0.98709422114276,14.4878,0.0022517,0.98709422,347.8057,105.2222,251.9443
20083,RADUGA 1-1,EGO,21273.59119441,1 20083U 89048A   21273.59119441 -.00000171  00000-0  00000-0 0    15\,2 20083  14.4869 347.7974 0022503 105.2927 248.5340  0.98708933114285,14.4869,0.0022503,0.98708933,347.7974,105.2927,248.534
20083,RADUGA 1-1,EGO,21274.63729858,1 20083U 89048A   21274.63729858 -.00000140  00000-0  00000-0 0    16\,2 20083  14.4860 347.7887 0022497 105.3665 260.2070  0.98708427114303,14.486,0.0022497,0.98708427,347.7887,105.3665,260.207
20083,RADUGA 1-1,EGO,21275.67033552,1 20083U 89048A   21275.67033552 -.00000109  00000-0  00000-0 0    15\,2 20083  14.4851 347.7801 0022474 105.4275 267.2473  0.98707945114311,14.4851,0.0022474,0.98707945,347.7801,105.4275,267.2473
20083,RADUGA 1-1,EGO,21276.67410911,1 20083U 89048A   21276.67410911 -.00000080  00000-0  00000-0 0    12\,2 20083  14.4842 347.7717 0022452 105.4814 263.8939  0.98707514114324,14.4842,0.0022452,0.98707514,347.7717,105.4814,263.8939
20083,RADUGA 1-1,EGO,21277.67781549,1 20083U 89048A   21277.67781549 -.00000052  00000-0  00000-0 0    10\,2 20083  14.4833 347.7634 0022449 105.5319 260.5186  0.98707137114339,14.4833,0.0022449,0.98707137,347.7634,105.5319,260.5186
20083,RADUGA 1-1,EGO,21279.68513987,1 20083U 89048A   21279.68513987 -.00000006  00000-0  00000+0 0  7534\,2 20083  14.4815 347.7466 0022402 105.5935 253.7734  0.98706633114349,14.4815,0.0022402,0.98706633,347.7466,105.5935,253.7734
20083,RADUGA 1-1,EGO,21279.71299382,1 20083U 89048A   21279.71299382 -.00000005  00000-0  00000-0 0    14\,2 20083  14.4815 347.7464 0022398 105.5915 263.6736  0.98706631114350,14.4815,0.0022398,0.98706631,347.7464,105.5915,263.6736
20083,RADUGA 1-1,EGO,21280.90328442,1 20083U 89048A   21280.90328442  .00000013  00000-0  00000-0 0    15\,2 20083  14.4804 347.7364 0022339 105.5940 326.6473  0.98706503114367,14.4804,0.0022339,0.98706503,347.7364,105.594,326.6473
20083,RADUGA 1-1,EGO,21281.02508156,1 20083U 89048A   21281.02508156  .00000014  00000-0  00000-0 0    12\,2 20083  14.4803 347.7354 0022372 105.6008   9.9223  0.98706502114361,14.4803,0.0022372,0.98706502,347.7354,105.6008,9.9223
20083,RADUGA 1-1,EGO,21281.69267685,1 20083U 89048A   21281.69267685  .00000021  00000-0  00000-0 0    12\,2 20083  14.4797 347.7298 0022353 105.6072 247.1496  0.98706505114361,14.4797,0.0022353,0.98706505,347.7298,105.6072,247.1496
20083,RADUGA 1-1,EGO,21282.22462765,1 20083U 89048A   21282.22462765  .00000024  00000-0  00000-0 0    11\,2 20083  14.4792 347.7253 0022327 105.5872  76.2012  0.98706534114373,14.4792,0.0022327,0.98706534,347.7253,105.5872,76.2012
20083,RADUGA 1-1,EGO,21282.76790213,1 20083U 89048A   21282.76790213  .00000025  00000-0  00000-0 0    13\,2 20083  14.4787 347.7208 0022318 105.5923 269.2518  0.98706596114388,14.4787,0.0022318,0.98706596,347.7208,105.5923,269.2518
20083,RADUGA 1-1,EGO,21283.77164088,1 20083U 89048A   21283.77164088  .00000022  00000-0  00000-0 0    17\,2 20083  14.4778 347.7123 0022300 105.5782 265.9509  0.98706781114398,14.4778,0.00223,0.98706781,347.7123,105.5782,265.9509
20083,RADUGA 1-1,EGO,21284.24285495,1 20083U 89048A   21284.24285495  .00000019  00000-0  00000-0 0    12\,2 20083  14.4774 347.7084 0022289 105.5665  73.4117  0.98706891114395,14.4774,0.0022289,0.98706891,347.7084,105.5665,73.4117
20083,RADUGA 1-1,EGO,21284.71716096,1 20083U 89048A   21284.71716096  .00000014  00000-0  00000-0 0    15\,2 20083  14.4770 347.7044 0022288 105.5606 241.9657  0.98707027114394,14.477,0.0022288,0.98707027,347.7044,105.5606,241.9657
20083,RADUGA 1-1,EGO,21285.27757799,1 20083U 89048A   21285.27757799  .00000007  00000-0  00000-0 0    14\,2 20083  14.4765 347.6996 0022273 105.5483  81.1266  0.98707201114406,14.4765,0.0022273,0.98707201,347.6996,105.5483,81.1266
20083,RADUGA 1-1,EGO,21285.77912632,1 20083U 89048A   21285.77912632 -.00000000  00000-0  00000+0 0  7580\,2 20083  14.4760 347.6954 0022274 105.5435 259.3610  0.98707384114407,14.476,0.0022274,0.98707384,347.6954,105.5435,259.361
20083,RADUGA 1-1,EGO,21286.26577171,1 20083U 89048A   21286.26577171 -.00000009  00000-0  00000-0 0    11\,2 20083  14.4756 347.6913 0022260 105.5287  72.3099  0.98707567114415,14.4756,0.002226,0.98707567,347.6913,105.5287,72.3099
20083,RADUGA 1-1,EGO,21286.79841020,1 20083U 89048A   21286.79841020 -.00000019  00000-0  00000-0 0    17\,2 20083  14.4751 347.6868 0022264 105.5206 261.5968  0.98707792114422,14.4751,0.0022264,0.98707792,347.6868,105.5206,261.5968
20083,RADUGA 1-1,EGO,21287.78663543,1 20083U 89048A   21287.78663543 -.00000041  00000-0  00000+0 0  7593\,2 20083  14.4742 347.6785 0022264 105.5079 252.7861  0.98708211114429,14.4742,0.0022264,0.98708211,347.6785,105.5079,252.7861
20083,RADUGA 1-1,EGO,21288.18209250,1 20083U 89048A   21288.18209250 -.00000050  00000-0  00000-0 0    10\,2 20083  14.4739 347.6752 0022255 105.5122  33.3120  0.98708382114439,14.4739,0.0022255,0.98708382,347.6752,105.5122,33.312
20083,RADUGA 1-1,EGO,21288.82202122,1 20083U 89048A   21288.82202122 -.00000066  00000-0  00000-0 0    19\,2 20083  14.4733 347.6699 0022268 105.5030 260.7278  0.98708660114445,14.4733,0.0022268,0.9870866,347.6699,105.503,260.7278
20083,RADUGA 1-1,EGO,21289.82063225,1 20083U 89048A   21289.82063225 -.00000092  00000-0  00000+0 0  7609\,2 20083  14.4724 347.6616 0022274 105.5049 255.5960  0.98709089114447,14.4724,0.0022274,0.98709089,347.6616,105.5049,255.596
20083,RADUGA 1-1,EGO,21290.85118775,1 20083U 89048A   21290.85118775 -.00000118  00000-0  00000-0 0    13\,2 20083  14.4715 347.6531 0022274 105.5137 261.8105  0.98709508114460,14.4715,0.0022274,0.98709508,347.6531,105.5137,261.8105
20083,RADUGA 1-1,EGO,21291.84007689,1 20083U 89048A   21291.84007689 -.00000142  00000-0  00000+0 0  7613\,2 20083  14.4706 347.6451 0022282 105.5343 253.2080  0.98709876114464,14.4706,0.0022282,0.98709876,347.6451,105.5343,253.208
20083,RADUGA 1-1,EGO,21292.11199576,1 20083U 89048A   21292.11199576 -.00000148  00000-0  00000-0 0    15\,2 20083  14.4703 347.6428 0022276 105.5511 349.8222  0.98709967114477,14.4703,0.0022276,0.98709967,347.6428,105.5511,349.8222
20083,RADUGA 1-1,EGO,21292.87683745,1 20083U 89048A   21292.87683745 -.00000165  00000-0  00000-0 0    13\,2 20083  14.4696 347.6366 0022286 105.5607 261.6125  0.98710200114482,14.4696,0.0022286,0.987102,347.6366,105.5607,261.6125
20083,RADUGA 1-1,EGO,21293.88061892,1 20083U 89048A   21293.88061892 -.00000185  00000-0  00000-0 0    10\,2 20083  14.4686 347.6285 0022291 105.5980 258.2877  0.98710454114499,14.4686,0.0022291,0.98710454,347.6285,105.598,258.2877
20083,RADUGA 1-1,EGO,21294.84563244,1 20083U 89048A   21294.84563244 -.00000201  00000-0  00000-0 0    14\,2 20083  14.4677 347.6206 0022280 105.6118 241.2097  0.98710620114495,14.4677,0.002228,0.9871062,347.6206,105.6118,241.2097
20083,RADUGA 1-1,EGO,21295.21275196,1 20083U 89048A   21295.21275196 -.00000206  00000-0  00000-0 0    17\,2 20083  14.4674 347.6176 0022304 105.6697  11.6162  0.98710697114505,14.4674,0.0022304,0.98710697,347.6176,105.6697,11.6162
20083,RADUGA 1-1,EGO,21295.88811638,1 20083U 89048A   21295.88811638 -.00000215  00000-0  00000-0 0    17\,2 20083  14.4667 347.6122 0022311 105.6968 251.5929  0.98710750114503,14.4667,0.0022311,0.9871075,347.6122,105.6968,251.5929
20083,RADUGA 1-1,EGO,21297.35580375,1 20083U 89048A   21297.35580375 -.00000227  00000-0  00000-0 0    15\,2 20083  14.4653 347.6003 0022324 105.8021  53.0601  0.98710769114526,14.4653,0.0022324,0.98710769,347.6003,105.8021,53.0601
20083,RADUGA 1-1,EGO,21297.89533313,1 20083U 89048A   21297.89533313 -.00000229  00000-0  00000+0 0  7641\,2 20083  14.4648 347.5959 0022325 105.8321 244.7626  0.98710731114528,14.4648,0.0022325,0.98710731,347.5959,105.8321,244.7626
20083,RADUGA 1-1,EGO,21299.20484082,1 20083U 89048A   21299.20484082 -.00000229  00000-0  00000-0 0    11\,2 20083  14.4636 347.5852 0022326 105.9154 350.0385  0.98710556114543,14.4636,0.0022326,0.98710556,347.5852,105.9154,350.0385
20083,RADUGA 1-1,EGO,21299.97436437,1 20083U 89048A   21299.97436437 -.00000227  00000-0  00000+0 0  7650\,2 20083  14.4629 347.5789 0022316 105.9593 263.4598  0.98710409114540,14.4629,0.0022316,0.98710409,347.5789,105.9593,263.4598
20083,RADUGA 1-1,EGO,21300.40895586,1 20083U 89048A   21300.40895586 -.00000224  00000-0  00000-0 0    16\,2 20083  14.4625 347.5754 0022322 105.9913  57.8680  0.98710312114552,14.4625,0.0022322,0.98710312,347.5754,105.9913,57.868
20083,RADUGA 1-1,EGO,21300.97807686,1 20083U 89048A   21300.97807686 -.00000219  00000-0  00000-0 0    16\,2 20083  14.4619 347.5707 0022309 106.0257 260.0813  0.98710169114568,14.4619,0.0022309,0.98710169,347.5707,106.0257,260.0813
